H1 CPF  1  MCC 2022  4  6 15  5961 larets
H2  0304206 5557    27944 2022 04 05 23 45 00 2022 04 10 23 57 00   180 1 1  0 0 0
H9
10 0 59675 22140.000000 0     -3360407.413      5028362.481      3622637.795
10 0 59675 22320.000000 0     -3418411.311      5674222.556      2417944.804
10 0 59675 22500.000000 0     -3337199.260      6112302.048      1124192.418
10 0 59675 22680.000000 0     -3125493.464      6323120.339      -210958.197
10 0 59675 22860.000000 0     -2797236.933      6295927.860     -1538355.919
10 0 59675 23040.000000 0     -2370825.078      6029213.852     -2809248.757
10 0 59675 23220.000000 0     -1868145.594      5530804.507     -3977135.686
10 0 59675 23400.000000 0     -1313494.306      4817569.645     -4999488.701
10 0 59675 23580.000000 0      -732429.183      3914764.989     -5839283.272
10 0 59675 23760.000000 0      -150617.692      2855057.637     -6466288.406
10 0 59675 23940.000000 0       407271.779      1677280.204     -6858080.600
10 0 59675 24120.000000 0       918584.411       424979.291     -7000761.636
10 0 59675 24300.000000 0      1363567.388      -855187.514     -6889384.263
10 0 59675 24480.000000 0      1726105.448     -2115157.484     -6528083.125
10 0 59675 24660.000000 0      1994285.017     -3307217.834     -5929920.241
10 0 59675 24840.000000 0      2160776.654     -4385772.531     -5116454.987
10 0 59675 25020.000000 0      2223022.948     -5309072.834     -4117027.224
10 0 59675 25200.000000 0      2183224.206     -6040841.078     -2967766.689
10 0 59675 25380.000000 0      2048120.724     -6551735.446     -1710348.479
10 0 59675 25560.000000 0      1828575.188     -6820583.886      -390517.123
10 0 59675 25740.000000 0      1538973.490     -6835317.571       943574.142
10 0 59675 25920.000000 0      1196467.979     -6593546.344      2243141.376
10 0 59675 26100.000000 0       820100.216     -6102742.084      3460592.928
10 0 59675 26280.000000 0       429846.470     -5380009.040      4551309.625
10 0 59675 26460.000000 0        45636.557     -4451462.851      5475302.734
10 0 59675 26640.000000 0      -313602.827     -3351247.591      6198688.096
10 0 59675 26820.000000 0      -630832.327     -2120236.002      6694919.870
10 0 59675 27000.000000 0      -891674.318      -804480.378      6945741.604
10 0 59675 27180.000000 0     -1085046.191       546523.068      6941844.853
10 0 59675 27360.000000 0     -1203629.161      1881705.782      6683216.196
10 0 59675 27540.000000 0     -1244152.083      3150367.160      6179159.771
10 0 59675 27720.000000 0     -1207482.223      4304119.468      5447994.540
10 0 59675 27900.000000 0     -1098518.717      5298772.077      4516427.687
10 0 59675 28080.000000 0      -925891.761      6096085.599      3418611.037
10 0 59675 28260.000000 0      -701479.642      6665315.860      2194901.464
10 0 59675 28440.000000 0      -439764.525      6984480.126       890358.985
10 0 59675 28620.000000 0      -157050.231      7041262.104      -446964.088
10 0 59675 28800.000000 0       129411.164      6833510.290     -1767861.028
10 0 59675 28980.000000 0       402334.012      6369294.756     -3023855.162
10 0 59675 29160.000000 0       645301.327      5666526.948     -4169028.485
10 0 59675 29340.000000 0       843612.685      4752180.803     -5161718.076
10 0 59675 29520.000000 0       985035.568      3661161.102     -5966011.701
10 0 59675 29700.000000 0      1060423.276      2434888.026     -6552991.051
10 0 59675 29880.000000 0      1064174.101      1119671.275     -6901691.492
10 0 59675 30060.000000 0       994518.281      -235050.159     -6999767.812
10 0 59675 30240.000000 0       853625.668     -1578544.656     -6843867.497
10 0 59675 30420.000000 0       647532.401     -2860641.654     -6439709.602
10 0 59675 30600.000000 0       385892.591     -4033552.708     -5801885.981
10 0 59675 30780.000000 0        81559.227     -5053622.996     -4953379.300
10 0 59675 30960.000000 0      -249990.164     -5882951.936     -3924798.925
10 0 59675 31140.000000 0      -591366.911     -6490831.474     -2753346.106
10 0 59675 31320.000000 0      -924096.398     -6854939.447     -1481524.408
10 0 59675 31500.000000 0     -1229519.938     -6962230.675      -155627.226
10 0 59675 31680.000000 0     -1489730.241     -6809468.735      1175948.938
10 0 59675 31860.000000 0     -1688494.666     -6403363.870      2464495.160
10 0 59675 32040.000000 0     -1812117.072     -5760302.119      3662810.779
10 0 59675 32220.000000 0     -1850189.472     -4905672.752      4726969.713
10 0 59675 32400.000000 0     -1796194.299     -3872833.709      5617951.315
10 0 59675 32580.000000 0     -1647931.708     -2701769.942      6303077.207
10 0 59675 32760.000000 0     -1407746.561     -1437504.776      6757197.586
10 0 59675 32940.000000 0     -1082548.176      -128345.045      6963594.498
10 0 59675 33120.000000 0      -683626.902      1175978.653      6914583.612
10 0 59675 33300.000000 0      -226266.638      2426208.740      6611803.026
10 0 59675 33480.000000 0       270838.629      3575434.710      6066179.098
10 0 59675 33660.000000 0       786341.641      4580879.286      5297565.672
10 0 59675 33840.000000 0      1297146.849      5405536.851      4334060.176
10 0 59675 34020.000000 0      1779430.365      6019598.671      3211005.524
10 0 59675 34200.000000 0      2209734.243      6401605.435      1969705.554
10 0 59675 34380.000000 0      2566082.040      6539265.382       655875.769
10 0 59675 34560.000000 0      2829051.295      6429877.609      -682098.339
10 0 59675 34740.000000 0      2982747.376      6080343.563     -1995010.239
10 0 59675 34920.000000 0      3015629.254      5506771.138     -3234706.490
10 0 59675 35100.000000 0      2921142.458      4733693.105     -4355901.487
10 0 59675 35280.000000 0      2698125.344      3792946.634     -5317845.531
10 0 59675 35460.000000 0      2350975.509      2722289.874     -6085777.199
10 0 59675 35640.000000 0      1889579.489      1563831.036     -6632117.926
10 0 59675 35820.000000 0      1329014.693       362345.715     -6937379.187
10 0 59675 36000.000000 0       689043.069      -836445.153     -6990777.191
10 0 59675 36180.000000 0        -6589.141     -1987582.578     -6790554.156
10 0 59675 36360.000000 0      -731017.090     -3048507.310     -6344009.054
10 0 59675 36540.000000 0     -1455267.411     -3980593.031     -5667249.259
10 0 59675 36720.000000 0     -2149383.756     -4750532.640     -4784657.492
10 0 59675 36900.000000 0     -2783636.280     -5331538.148     -3728082.934
10 0 59675 37080.000000 0     -3329773.962     -5704307.685     -2535758.640
10 0 59675 37260.000000 0     -3762266.259     -5857714.998     -1250970.510
10 0 59675 37440.000000 0     -4059479.216     -5789186.415        79489.012
10 0 59675 37620.000000 0     -4204722.032     -5504734.432      1407032.069
10 0 59675 37800.000000 0     -4187106.480     -5018636.937      2683080.079
10 0 59675 37980.000000 0     -4002170.413     -4352771.484      3860880.742
10 0 59675 38160.000000 0     -3652232.428     -3535641.092      4897254.718
10 0 59675 38340.000000 0     -3146458.641     -2601139.687      5754198.299
10 0 59675 38520.000000 0     -2500640.691     -1587124.369      6400275.588
10 0 59675 38700.000000 0     -1736697.249      -533863.906      6811761.716
10 0 59675 38880.000000 0      -881915.385       517578.141      6973497.534
10 0 59675 39060.000000 0        32031.526      1526950.363      6879431.073
10 0 59675 39240.000000 0       970257.883      2456361.448      6532850.276
10 0 59675 39420.000000 0      1896000.586      3271717.889      5946289.755
10 0 59675 39600.000000 0      2772066.251      3944000.078      5141113.858
10 0 59675 39780.000000 0      3562345.008      4450337.043      4146777.996
10 0 59675 39960.000000 0      4233327.782      4774829.468      2999776.410
10 0 59675 40140.000000 0      4755566.016      4909089.578      1742306.732
10 0 59675 40320.000000 0      5104992.553      4852458.550       420683.312
10 0 59675 40500.000000 0      5264036.388      4611889.866      -916425.832
10 0 59675 40680.000000 0      5222462.758      4201496.109     -2219865.012
10 0 59675 40860.000000 0      4977897.826      3641790.340     -3441860.336
10 0 59675 41040.000000 0      4536015.815      2958669.859     -4537811.066
10 0 59675 41220.000000 0      3910383.317      2182202.006     -5467923.841
10 0 59675 41400.000000 0      3121982.112      1345277.386     -6198623.238
10 0 59675 41580.000000 0      2198442.755       482205.056     -6703696.785
10 0 59675 41760.000000 0      1173032.777      -372686.222     -6965150.141
10 0 59675 41940.000000 0        83447.056     -1186388.469     -6973771.604
10 0 59675 42120.000000 0     -1029564.588     -1928454.918     -6729401.649
10 0 59675 42300.000000 0     -2123685.794     -2572103.217     -6240915.621
10 0 59675 42480.000000 0     -3156601.312     -3095158.223     -5525922.573
10 0 59675 42660.000000 0     -4087599.810     -3480808.143     -4610185.963
10 0 59675 42840.000000 0     -4879169.247     -3718153.697     -3526765.378
10 0 59675 43020.000000 0     -5498520.570     -3802523.378     -2314888.458
10 0 59675 43200.000000 0     -5918976.028     -3735539.224     -1018577.640
10 0 59675 43380.000000 0     -6121152.089     -3524922.793       314929.728
10 0 59675 43560.000000 0     -6093874.331     -3184045.468      1636911.723
10 0 59675 43740.000000 0     -5834766.942     -2731238.757      2898976.555
10 0 59675 43920.000000 0     -5350476.592     -2188895.792      4054873.856
10 0 59675 44100.000000 0     -4656522.324     -1582413.144      5062223.807
10 0 59675 44280.000000 0     -3776776.459      -939025.494      5884084.838
10 0 59675 44460.000000 0     -2742614.370      -286597.628      6490305.183
10 0 59675 44640.000000 0     -1591762.761       347576.880      6858617.854
10 0 59675 44820.000000 0      -366897.100       937912.181      6975437.866
10 0 59675 45000.000000 0       885950.625      1461560.439      6836352.671
99
